NORAD_CAT_ID,OBJECT_NAME,OBJECT_TYPE,EPOCH,MEAN_MOTION,ECCENTRICITY,INCLINATION,RA_OF_ASC_NODE,ARG_OF_PERICENTER,MEAN_ANOMALY,BSTAR,MEAN_MOTION_DOT,MEAN_MOTION_DDOT,TLE_LINE0,TLE_LINE1,TLE_LINE2,SEMIMAJOR_AXIS,PERIOD,APOGEE,PERIGEE,DECAYED
51754.0,STARLINK-3457,PAYLOAD,2022-05-09 22:00:00,15.50499784,0.0001309,53.2174,118.1021,62.5586,243.1303,-0.012688,-0.00676131,0.0,0 STARLINK-3457,1 51754U 22016AS  22129.91667824 -.00676131  00000-0 -12688-1 0  9994,2 51754  53.2174 118.1021 0001309  62.5586 243.1303 15.50499784  3703,6793.403,92.873,416.157,414.379,0.0
51754.0,STARLINK-3457,PAYLOAD,2022-05-10 00:00:00,15.5032461,0.0001246,53.2175,117.7039,58.0342,353.0612,-0.010282,-0.00553145,0.0,0 STARLINK-3457,1 51754U 22016AS  22130.00001157 -.00553145  00000-0 -10282-1 0  9994,2 51754  53.2175 117.7039 0001246  58.0342 353.0612 15.50324610 13438,6793.915,92.884,416.626,414.9330000000001,0.0
51754.0,STARLINK-3457,PAYLOAD,2022-05-10 08:00:01,15.49886008,0.0001541,53.2174,116.1121,44.8693,67.4223,-2.1589e-05,-1.677e-05,0.0,0 STARLINK-3457,1 51754U 22016AS  22130.33334491 -.00001677  00000-0 -21589-4 0  9993,2 51754  53.2174 116.1121 0001541  44.8693  67.4223 15.49886008 13494,6795.196,92.91,418.108,416.014,0.0
51754.0,STARLINK-3457,PAYLOAD,2022-05-10 14:00:01,15.49886525,0.0001179,53.2172,114.9165,66.5235,1.4541,-2.6228e-05,-1.94e-05,0.0,0 STARLINK-3457,1 51754U 22016AS  22130.58334491 -.00001940  00000-0 -26228-4 0  9998,2 51754  53.2172 114.9165 0001179  66.5235   1.4541 15.49886525  3704,6795.195,92.91,417.861,416.259,0.0
51754.0,STARLINK-3457,PAYLOAD,2022-05-10 18:00:00,15.49901716,0.0001623,53.2136,114.1255,66.9169,211.6132,0.00060589,0.00034106,0.0,0 STARLINK-3457,1 51754U 22016AS  22130.75001157  .00034106  00000-0  60589-3 0  9992,2 51754  53.2136 114.1255 0001623  66.9169 211.6132 15.49901716 13555,6795.15,92.909,418.11800000000005,415.912,0.0
51754.0,STARLINK-3457,PAYLOAD,2022-05-11 22:00:00,15.49886124,0.0001498,53.2138,108.5487,66.6778,245.1575,0.00069142,0.00038988,0.0,0 STARLINK-3457,1 51754U 22016AS  22131.91667824  .00038988  00000-0  69142-3 0  9996,2 51754  53.2138 108.5487 0001498  66.6778 245.1575 15.49886124 13732,6795.196,92.91,418.079,416.043,0.0
51754.0,STARLINK-3457,PAYLOAD,2022-05-12 14:00:01,15.49956725,0.0001482,53.2131,105.3632,58.7599,14.9373,-0.0019748,-0.00111238,0.0,0 STARLINK-3457,1 51754U 22016AS  22132.58334491 -.00111238  00000-0 -19748-2 0  9999,2 51754  53.2131 105.3632 0001482  58.7599  14.9373 15.49956725  1301,6794.99,92.906,417.862,415.848,0.0
51754.0,STARLINK-3457,PAYLOAD,2022-05-12 20:00:01,15.49859917,0.0001294,53.2131,104.1671,65.4044,324.0285,0.00070239,0.00039579,0.0,0 STARLINK-3457,1 51754U 22016AS  22132.83334491  .00039579  00000-0  70239-3 0  9995,2 51754  53.2131 104.1671 0001294  65.4044 324.0285 15.49859917 13879,6795.272,92.912,418.017,416.258,0.0
51754.0,STARLINK-3457,PAYLOAD,2022-05-12 22:00:00,15.49868866,0.0001305,53.2134,103.769,66.309,68.345,0.00060764,0.00034166,0.0,0 STARLINK-3457,1 51754U 22016AS  22132.91667824  .00034166  00000-0  60764-3 0  9992,2 51754  53.2134 103.7690 0001305  66.3090  68.3450 15.49868866  1302,6795.246,92.911,417.99800000000016,416.225,0.0
51754.0,STARLINK-3457,PAYLOAD,2022-05-13 14:00:01,15.49928815,0.0001236,53.2137,100.5825,59.5852,196.8746,-0.0013727,-0.00077711,0.0,0 STARLINK-3457,1 51754U 22016AS  22133.58334491 -.00077711  00000-0 -13727-2 0  9998,2 51754  53.2137 100.5825 0001236  59.5852 196.8746 15.49928815 13997,6795.071,92.907,417.776,416.096,0.0
51754.0,STARLINK-3457,PAYLOAD,2022-05-13 22:00:00,15.50090561,0.000102,53.2151,98.9861,74.4652,242.8949,-0.012986,-0.00681459,0.0,0 STARLINK-3457,1 51754U 22016AS  22133.91667824 -.00681459  00000-0 -12986-1 0  9999,2 51754  53.2151  98.9861 0001020  74.4652 242.8949 15.50090561 14042,6794.598000000001,92.898,417.156,415.77,0.0
51754.0,STARLINK-3457,PAYLOAD,2022-05-14 06:00:00,15.49607099,0.0001281,53.2167,97.3935,56.3342,321.8778,-0.0036505,-0.00200447,0.0,0 STARLINK-3457,1 51754U 22016AS  22134.25001157 -.00200447  00000-0 -36505-2 0  9996,2 51754  53.2167  97.3935 0001281  56.3342 321.8778 15.49607099 14099,6796.012,92.927,418.747,417.006,0.0
51754.0,STARLINK-3457,PAYLOAD,2022-05-14 14:00:01,15.49462194,0.0001176,53.2173,95.7988,62.6954,16.0383,-0.013943,-0.00721819,0.0,0 STARLINK-3457,1 51754U 22016AS  22134.58334491 -.00721819  00000-0 -13943-1 0  9993,2 51754  53.2173  95.7988 0001176  62.6954  16.0383 15.49462194 14144,6796.435,92.935,419.1,417.501,0.0
51754.0,STARLINK-3457,PAYLOAD,2022-05-14 22:00:00,15.48951371,0.0001452,53.2175,94.2063,54.585,84.2431,-0.014153,-0.00719768,0.0,0 STARLINK-3457,1 51754U 22016AS  22134.91667824 -.00719768  00000-0 -14153-1 0  9993,2 51754  53.2175  94.2063 0001452  54.5850  84.2431 15.48951371  1300,6797.929,92.966,420.781,418.807,0.0
51754.0,STARLINK-3457,PAYLOAD,2022-05-15 14:00:01,15.47934059,0.0001288,53.2175,91.0269,71.6136,185.6272,-0.014784,-0.00724969,0.0,0 STARLINK-3457,1 51754U 22016AS  22135.58335648 -.00724969  00000-0 -14784-1 0  9992,2 51754  53.2175  91.0269 0001288  71.6136 185.6272 15.47934059 14303,6800.908,93.027,423.648,421.897,0.0
51754.0,STARLINK-3457,PAYLOAD,2022-05-15 22:00:00,15.47422286,0.0001236,53.2177,89.4385,66.5148,248.9174,-0.014955,-0.00720665,0.0,0 STARLINK-3457,1 51754U 22016AS  22135.91667824 -.00720665  00000-0 -14955-1 0  9992,2 51754  53.2177  89.4385 0001236  66.5148 248.9174 15.47422286  1308,6802.406999999997,93.058,425.11300000000006,423.431,0.0
51754.0,STARLINK-3457,PAYLOAD,2022-05-16 14:00:01,15.46401665,0.0001214,53.2175,86.2664,60.1427,9.9623,-0.015491,-0.00720448,0.0,0 STARLINK-3457,1 51754U 22016AS  22136.58334491 -.00720448  00000-0 -15491-1 0  9992,2 51754  53.2175  86.2664 0001214  60.1427   9.9623 15.46401665  1308,6805.4,93.119,428.091,426.43800000000016,0.0
51754.0,STARLINK-3457,PAYLOAD,2022-05-16 22:00:00,15.45891101,0.0001444,53.2177,84.6817,53.2121,73.3101,-0.015734,-0.00719073,0.0,0 STARLINK-3457,1 51754U 22016AS  22136.91667824 -.00719073  00000-0 -15734-1 0  9990,2 51754  53.2177  84.6817 0001444  53.2121  73.3101 15.45891101 14511,6806.898,93.15,429.746,427.78,0.0
51754.0,STARLINK-3457,PAYLOAD,2022-05-17 14:00:01,15.44873316,0.0001327,53.2175,81.5166,70.2238,167.3577,-0.016383,-0.0072264,0.0,0 STARLINK-3457,1 51754U 22016AS  22137.58335648 -.00722640  00000-0 -16383-1 0  9995,2 51754  53.2175  81.5166 0001327  70.2238 167.3577 15.44873316  1301,6809.887,93.212,432.656,430.849,0.0
51754.0,STARLINK-3457,PAYLOAD,2022-05-17 20:00:01,15.44489924,0.0001444,53.2174,80.3305,60.973,127.5356,-0.016534,-0.00720009,0.0,0 STARLINK-3457,1 51754U 22016AS  22137.83334491 -.00720009  00000-0 -16534-1 0  9993,2 51754  53.2174  80.3305 0001444  60.9730 127.5356 15.44489924 14658,6811.014,93.235,433.86300000000006,431.896,0.0
51754.0,STARLINK-3457,PAYLOAD,2022-05-17 22:00:01,15.44362326,0.0001338,53.2176,79.9358,63.3841,228.7763,-0.016617,-0.00720422,0.0,0 STARLINK-3457,1 51754U 22016AS  22137.91668981 -.00720422  00000-0 -16617-1 0  9997,2 51754  53.2176  79.9358 0001338  63.3841 228.7763 15.44362326  1304,6811.389,93.242,434.166,432.343,0.0
51754.0,STARLINK-3457,PAYLOAD,2022-05-18 14:00:01,15.43341631,0.0001127,53.2175,76.7781,68.3849,331.0305,-0.0171909999999999,-0.00719847,0.0,0 STARLINK-3457,1 51754U 22016AS  22138.58334491 -.00719847  00000-0 -17191-1 0  9994,2 51754  53.2175  76.7781 0001127  68.3849 331.0305 15.43341631  1302,6814.392,93.304,437.025,435.489,0.0
51754.0,STARLINK-3457,PAYLOAD,2022-05-18 20:00:01,15.42958243,0.0001277,53.2175,75.5947,58.5002,290.5281,-0.017347,-0.0071723,0.0,0 STARLINK-3457,1 51754U 22016AS  22138.83334491 -.00717230  00000-0 -17347-1 0  9999,2 51754  53.2175  75.5947 0001277  58.5002 290.5281 15.42958243 14804,6815.521,93.327,438.256,436.516,0.0
51754.0,STARLINK-3457,PAYLOAD,2022-05-18 22:00:00,15.42832416,0.0001398,53.2174,75.2011,51.5874,40.56800000000001,-0.017516,-0.00720867,0.0,0 STARLINK-3457,1 51754U 22016AS  22138.91667824 -.00720867  00000-0 -17516-1 0  9995,2 51754  53.2174  75.2011 0001398  51.5874  40.5680 15.42832416  1306,6815.892,93.335,438.709,436.804,0.0
51754.0,STARLINK-3457,PAYLOAD,2022-05-19 14:00:01,15.41811018,0.0001314,53.2175,72.0502,71.8239,124.0385,-0.018051,-0.00717959,0.0,0 STARLINK-3457,1 51754U 22016AS  22139.58335648 -.00717959  00000-0 -18051-1 0  9998,2 51754  53.2175  72.0502 0001314  71.8239 124.0385 15.41811018  1309,6818.901,93.397,441.662,439.87,0.0
51754.0,STARLINK-3457,PAYLOAD,2022-05-19 22:00:00,15.413012900000002,0.0001453999999999,53.2176,70.4772,59.7733,186.9264,-0.018374,-0.00718406,0.0,0 STARLINK-3457,1 51754U 22016AS  22139.91667824 -.00718406  00000-0 -18374-1 0  9995,2 51754  53.2176  70.4772 0001454  59.7733 186.9264 15.41301290 14976,6820.405,93.428,443.261,441.278,0.0
51754.0,STARLINK-3457,PAYLOAD,2022-05-20 14:00:01,15.40281285,0.0001195,53.2176,67.3336,64.2453,282.4202,-0.019014,-0.00718509,0.0,0 STARLINK-3457,1 51754U 22016AS  22140.58334491 -.00718509  00000-0 -19014-1 0  9997,2 51754  53.2176  67.3336 0001195  64.2453 282.4202 15.40281285  1306,6823.415,93.489,446.096,444.465,0.0
51754.0,STARLINK-3457,PAYLOAD,2022-05-20 22:00:00,15.39773283,0.0001246,53.2177,65.7644,59.6736,336.0544,-0.019428,-0.00721634,0.0,0 STARLINK-3457,1 51754U 22016AS  22140.91667824 -.00721634  00000-0 -19428-1 0  9995,2 51754  53.2177  65.7644 0001246  59.6736 336.0544 15.39773283 15122,6824.916,93.52,447.632,445.931,0.0
51754.0,STARLINK-3457,PAYLOAD,2022-05-21 06:00:00,15.39258955,0.000129,53.2174,64.197,57.3609,26.8186,-0.019538,-0.00714089,0.0,0 STARLINK-3457,1 51754U 22016AS  22141.25001157 -.00714089  00000-0 -19538-1 0  9992,2 51754  53.2174  64.1970 0001290  57.3609  26.8186 15.39258955  1302,6826.436,93.552,449.182,447.421,0.0
